C/2020 H5 (Robinson),e,70.2143,210.6045,326.2654,6918,0.0000017,0.99865080,0.0000,12/10.0747/2020,2000,g  5.0,4.0
# From MPEC 2024-JU4
C/2020 H6 (ATLAS),e,79.9994,213.6736,20.1760,1804,0.0000129,0.99739715,0.0000,09/29.3868/2021,2000,g  8.0,3.2
# From MPEC 2023-HN7
C/2020 H11 (PANSTARRS-Lemmon),e,151.3692,303.0583,91.3505,7483,0.0000015,0.99898146,0.0000,09/11.7456/2020,2000,g  8.5,4.0
# From MPEC 2023-KD6
C/2020 J1 (SONEAR),e,142.3095,226.5650,341.5336,4904,0.0000029,0.99931815,0.0000,04/17.6725/2021,2000,g  8.5,3.2
# From MPEC 2026-A90
C/2020 K1 (PANSTARRS),e,89.6706,94.3672,213.9593,1798,0.0000129,0.99829008,0.0000,05/08.4733/2023,2000,g  5.5,4.0
# From MPEC 2021-N06
C/2020 K2 (PANSTARRS),h,08/03.5468/2020,90.9854,288.4367,67.2919,1.000131,8.880229,2000,6.5,4.0
# From MPEC 2023-N01
C/2020 K6 (Rankin),h,09/14.1716/2021,103.6271,291.6033,44.2516,1.001495,5.865122,2000,8.0,4.0
# From MPEC 2023-A50
C/2020 K7 (PANSTARRS),e,32.0442,286.1348,358.0252,93.89030,0.0010834,0.93200443,2.4650,01/16.0/2026,2000,g  8.0,4.0
# From MPEC 2021-BE3
P/2020 K9 (Lemmon-PANSTARRS),e,23.1859,166.3059,197.0735,4.208296,0.1141681,0.31986296,205.5817,01/16.0/2026,2000,g 12.5,4.0
# From MPEC 2023-N01
A/2020 M4,e,160.0956,348.6075,104.4396,7065,0.0000017,0.99915933,0.0000,11/22.1554/2020,2000,g 14.5,2.0
# From MPEC 2024-NE4
P/2020 MK4 (PANSTARRS),e,6.7807,0.6552,94.4473,6.225792,0.0634472,0.01558119,330.1351,01/16.0/2026,2000,g  8.0,4.0
# From MPEC 2023-FK0
C/2020 M5 (ATLAS),h,08/19.6154/2021,93.1615,351.9910,126.2488,1.000064,3.000621,2000,9.0,4.0
# From MPEC 2024-JU4
C/2020 O2 (Amaral),e,71.7650,256.7836,10.1360,5927,0.0000022,0.99918104,0.0000,08/26.9448/2021,2000,g  8.0,3.2
# From MPEC 2023-C45
P/2020 O3 (PANSTARRS),e,8.4444,266.8157,81.0567,4.645966,0.0984215,0.10241381,178.9998,01/16.0/2026,2000,g 12.0,4.0
# From MPEC 2024-JU4
C/2020 P3 (ATLAS),h,04/23.1781/2021,61.8378,19.4894,82.3697,1.003919,6.817874,2000,6.0,4.0
# From MPEC 2020-QN1
C/2020 P4-B (SOHO),h,08/07.7548/2020,26.8994,171.7491,173.3860,1.000557,0.102143,2000,0.0,6.0
# From MPEC 2020-QN1
C/2020 P4-C (SOHO),h,08/05.4084/2020,37.2661,165.2908,115.9683,1.013268,0.089575,2000,-1.6,6.0
# From MPEC 2022-PB4
C/2020 PV6 (PANSTARRS),e,128.1369,329.1194,71.2563,41.48817,0.0036882,0.94478556,5.8036,01/16.0/2026,2000,g 10.0,4.0
# From MPEC 2023-CD7
C/2020 Q2 (PANSTARRS),e,3.3364,179.8420,118.1290,10.59347,0.0285856,0.48854194,62.4415,01/16.0/2026,2000,g 12.0,3.2
# From MPEC 2024-F34
C/2020 R2 (PANSTARRS),e,53.2060,195.1420,211.8928,426.8683,0.0001118,0.98898682,0.0000,02/25.2395/2022,2000,g  9.0,4.0
# From MPEC 2023-C45
P/2020 R5 (PANSTARRS),e,11.4394,272.9379,82.7283,4.994371,0.0883045,0.31282950,181.9751,01/16.0/2026,2000,g  9.5,6.0
# From MPEC 2024-PC5
C/2020 R7 (ATLAS),e,114.9037,268.3069,347.7231,4656,0.0000031,0.99936649,0.0000,09/15.9107/2022,2000,g  7.0,3.2
# From MPEC 2024-N80
C/2020 S4 (PANSTARRS),h,02/09.7558/2023,20.5716,117.6760,21.0901,1.003068,3.371375,2000,8.5,3.2
# From MPEC 2021-BE3
P/2020 S5 (PANSTARRS),e,12.3397,316.0110,53.2621,4.059423,0.1205057,0.33705550,239.5458,01/16.0/2026,2000,g 14.5,4.0
# From MPEC 2022-TD3
C/2020 T2 (Palomar),e,27.8422,83.0121,150.3202,264.5719,0.0002290,0.99225358,0.0000,07/10.6513/2021,2000,g 11.0,3.2
# From MPEC 2024-TD8
C/2020 U4 (PANSTARRS),h,04/10.3243/2022,167.0037,120.4050,70.1966,1.001622,5.362926,2000,7.0,4.0
# From MPEC 2024-GJ3
C/2020 U5 (PANSTARRS),e,97.3161,107.3132,75.4704,48466,0.0000001,0.99992249,0.0000,04/28.6327/2022,2000,g  8.0,4.0
# From MPC188409
C/2020 V2 (ZTF),h,05/08.6003/2023,131.6089,212.4229,162.4869,1.001197,2.229720,2000,4.9,4.0
# From MPEC 2023-D72
P/2020 V3 (PANSTARRS),e,23.0149,198.2723,249.9148,8.412131,0.0403966,0.25779736,72.4760,01/16.0/2026,2000,g  8.3,4.0
# From MPC188409
P/2020 V4 (Rankin),e,14.2324,203.4879,257.3244,9.403916,0.0341776,0.45160751,56.0432,01/16.0/2026,2000,g  9.0,4.0
# From MPEC 2021-BE3
P/2020 W1 (Rankin),e,10.7762,124.3825,265.4169,7.227164,0.0507285,0.26507313,106.9114,01/16.0/2026,2000,g 10.0,4.0
# From MPEC 2024-PC5
P/2020 WJ5 (Lemmon),e,22.2892,177.7473,338.1398,6.015947,0.0667956,0.17229361,110.8592,01/16.0/2026,2000,g  8.5,4.0
# From MPEC 2024-F34
P/2020 X1 (ATLAS),e,31.6865,55.9930,323.5186,4.537324,0.1019775,0.36406361,204.6426,01/16.0/2026,2000,g 13.0,4.0
# From MPEC 2024-A43
C/2020 X2 (ATLAS),e,18.1871,105.3513,347.6233,16.56006,0.0146255,0.76838178,27.5793,01/16.0/2026,2000,g 10.6,4.0
# From MPEC 2021-S45
C/2020 X4 (Leonard),e,80.6684,161.9754,140.2636,40.52627,0.0038203,0.87113848,7.2118,01/16.0/2026,2000,g  9.0,4.0
# From MPC181179
C/2020 Y2 (ATLAS),e,101.2399,26.5489,266.4183,1204,0.0000236,0.99738617,0.0000,06/17.6055/2022,2000,g  6.5,4.0
# From MPC181179
C/2021 A1 (Leonard),h,01/04.0914/2022,132.7353,255.9019,225.1155,1.000277,0.614445,2000,8.5,4.0
# From MPC181180
P/2021 A5 (PANSTARRS),e,18.1849,328.6827,62.1521,3.052048,0.1848490,0.14100632,348.4666,01/16.0/2026,2000,g 15.0,4.0
# From MPEC 2024-P23
C/2021 A6 (PANSTARRS),e,75.5559,164.0080,351.6498,17802,0.0000004,0.99955475,0.0000,05/03.3670/2021,2000,g  7.0,4.0
# From MPEC 2022-M88
C/2021 A7 (NEOWISE),e,78.2416,154.3736,356.0225,2037,0.0000107,0.99903485,0.0000,07/15.2076/2021,2000,g 10.0,4.0
# From MPEC 2025-X35
C/2021 A9 (PANSTARRS),e,158.0177,314.8508,211.6718,44224,0.0000001,0.99982440,0.0000,12/04.4419/2023,2000,g  6.0,4.0
# From MPEC 2021-U31
P/2021 C2 (PANSTARRS),e,21.9342,66.4528,78.7571,9.550152,0.0333956,0.48858983,59.6368,01/16.0/2026,2000,g 12.0,4.0
# From MPEC 2025-UQ3
C/2021 C4 (ATLAS),e,132.8241,194.2044,319.9864,2883,0.0000064,0.99844144,0.0000,01/15.7597/2021,2000,g  9.0,4.0
# From MPEC 2024-N80
C/2021 C5 (PANSTARRS),e,50.8069,323.6750,270.8692,1685,0.0000142,0.99807800,0.0000,02/11.0193/2023,2000,g  9.0,4.0
# From MPEC 2026-A90
C/2021 D2 (ZTF),h,02/03.4154/2022,83.7653,305.6153,125.0945,1.001386,2.951949,2000,9.0,4.0
# From MPEC 2022-UY9
A/2021 E2,e,167.4972,190.7164,342.1871,196.7259,0.0003572,0.98838820,0.0000,12/08.3546/2020,2000,g 15.0,2.0
# From MPEC 2024-GJ3
C/2021 E3 (ZTF),e,112.5210,104.4839,228.7830,3860,0.0000041,0.99953943,0.0000,06/10.6816/2022,2000,g  8.5,4.0
# From MPEC 2024-N80
A/2021 E4,e,116.3955,171.1296,48.3050,509.1378,0.0000858,0.99080400,0.0000,04/24.8686/2022,2000,g 13.5,2.0
# From MPEC 2026-A24
C/2021 G2 (ATLAS),h,09/09.1476/2024,48.4608,221.0902,343.2664,1.000984,4.982076,2000,5.5,4.0
# From MPEC 2022-X67
C/2021 G3 (PANSTARRS),e,102.8772,147.3286,10.6228,11584,0.0000008,0.99955239,0.0000,10/17.9488/2021,2000,g 10.5,4.0
# From MPEC 2024-F34
P/2021 J3 (ATLAS),e,14.5117,110.9347,125.5574,8.880465,0.0372435,0.44977345,89.0886,01/16.0/2026,2000,g  7.0,4.0
# From MPEC 2022-O08
C/2021 K1 (ATLAS),e,16.2689,140.9304,184.1973,12.58811,0.0220680,0.80116966,37.9665,01/16.0/2026,2000,g 11.0,4.0
# From MPEC 2022-O01
C/2021 K2 (MASTER),h,09/08.9907/2021,100.8720,282.3401,343.2346,1.000144,5.460346,2000,8.0,4.0
# From MPEC 2022-L66
C/2021 K3 (Catalina),h,02/03.3735/2022,134.7803,114.6154,181.9778,1.003847,5.224788,2000,10.0,4.0
# From MPEC 2024-H50
C/2021 L3 (Borisov),h,02/14.9606/2022,78.5242,345.0244,91.6593,1.004272,8.461544,2000,6.0,4.0
# From MPEC 2022-TA0
P/2021 N1 (ZTF),e,11.4853,301.1321,21.2166,2.980399,0.1915546,0.67573392,323.0615,01/16.0/2026,2000,g 19.0,4.0
# From MPEC 2024-GJ3
P/2021 N2 (Fuls),e,13.0587,221.7522,177.6475,6.947768,0.0538191,0.45183113,82.0327,01/16.0/2026,2000,g  9.5,4.0
# From MPEC 2022-YB4
C/2021 N3 (PANSTARRS),e,26.7701,337.5398,304.5336,138.5845,0.0006041,0.95881059,1.1954,01/16.0/2026,2000,g  8.5,4.0
# From MPEC 2024-F34
C/2021 P1 (PANSTARRS),e,51.6096,359.7240,40.5301,2395,0.0000084,0.99817093,0.0000,06/02.3741/2022,2000,g 11.0,4.0
# From MPC185656
C/2021 P2 (PANSTARRS),e,150.0475,32.1009,76.6982,12611,0.0000007,0.99959827,0.0000,01/23.0121/2023,2000,g  9.0,4.0
# From MPEC 2024-GJ3
P/2021 P3 (PANSTARRS),e,27.1634,358.2442,333.9568,4.411769,0.1063616,0.33843349,180.2222,01/16.0/2026,2000,g 14.0,4.0
# From MPEC 2023-A50
C/2021 P4 (ATLAS),e,56.4055,347.9765,175.8242,299.0803,0.0001906,0.99639437,0.0000,07/30.5306/2022,2000,g  9.5,4.0
# From MPEC 2023-FK0
C/2021 Q3 (ATLAS),e,77.7085,307.9054,114.1603,74.71584,0.0015261,0.93025473,2.2148,01/16.0/2026,2000,g  8.0,4.0
# From MPC188409
C/2021 Q4 (Fuls),h,06/10.3176/2023,71.5520,183.3355,147.0153,1.000561,7.563661,2000,6.0,4.0
# From MPC181180
P/2021 Q5 (ATLAS),e,10.7381,239.7325,180.9712,3.284248,0.1655961,0.62420381,264.6859,01/16.0/2026,2000,g 15.0,4.0
# From MPC188409
C/2021 Q6 (PANSTARRS),h,03/25.2990/2024,161.8272,133.5735,141.0627,1.003379,8.707477,2000,6.0,4.0
# From MPEC 2023-FK0
C/2021 QM45 (PANSTARRS),e,22.7885,354.5918,72.9586,413.2602,0.0001173,0.99327182,0.0000,08/13.5792/2022,2000,g 11.0,4.0
# From MPEC 2022-X67
P/2021 R1 (PANSTARRS),e,5.5397,143.0583,219.9676,8.237393,0.0416888,0.40671942,62.6283,01/16.0/2026,2000,g 11.0,4.0
# From MPEC 2022-X67
C/2021 R2 (PANSTARRS),e,134.4787,16.3569,32.5615,18209,0.0000004,0.99959825,0.0000,12/28.6001/2021,2000,g  7.5,4.0
# From MPEC 2021-W31
P/2021 R3 (PANSTARRS),e,19.9451,304.1982,2.5716,3.768009,0.1347523,0.33211809,228.6578,01/16.0/2026,2000,g 16.0,4.0
# From MPEC 2024-JU4
P/2021 R5 (Rankin),e,7.8529,219.9680,167.6106,4.798953,0.0937528,0.30562650,137.3608,01/16.0/2026,2000,g 12.0,4.0
# From MPEC 2022-X67
C/2021 R7 (PANSTARRS),e,158.8802,170.2214,140.4318,1081,0.0000277,0.99476818,0.0000,04/17.7538/2021,2000,g 10.5,4.0
# From MPEC 2021-Y10
P/2021 R8 (Sheppard),e,2.2026,167.0569,190.8021,3.020637,0.1877398,0.29241868,293.3906,01/16.0/2026,2000,g 18.5,4.0
# From MPEC 2023-J29
C/2021 S1 (ATLAS),h,03/02.1534/2022,52.0339,299.8502,148.3481,1.002961,6.128223,2000,7.0,4.0
# From MPEC 2026-A24
C/2021 S3 (PANSTARRS),e,58.5549,215.5892,6.8300,16434,0.0000005,0.99991973,0.0000,02/14.6604/2024,2000,g  5.5,4.0
# From MPC184409
C/2021 S4 (Tsuchinshan),e,17.4820,5.4376,73.0894,152.9353,0.0005211,0.95623033,0.3872,01/16.0/2026,2000,g  6.5,4.0
# From MPC184409
